IRIDIUM 39              
1 25042U 97069D   26002.31031774  .00001542  00000+0  39631-3 0  9996
2 25042  86.3933 125.8107 0017719   7.9524 352.1957 14.49544531477801
IRIDIUM 38              
1 25043U 97069E   26001.80509576  .00001049  00000+0  33815-3 0  9990
2 25043  86.3989 149.6712 0003128 129.4072 230.7404 14.38338923474502
IRIDIUM 42              
1 25077U 97077A   26001.91680858  .00000887  00000+0  29559-3 0  9990
2 25077  86.3994 156.0374 0002099 114.1858 245.9558 14.36554606469722
IRIDIUM 44              
1 25078U 97077B   26001.89016362  .00000793  00000+0  24351-3 0  9992
2 25078  86.3986 137.4529 0003914  94.0231 266.1415 14.40452825472307
IRIDIUM 45              
1 25104U 97082A   26002.31665423  .00048442  00000+0  13275-2 0  9999
2 25104  86.3552 310.5276 0092271 301.9824  57.2481 15.32830428482428
IRIDIUM 24              
1 25105U 97082B   26002.02128661  .00000984  00000+0  29186-3 0  9994
2 25105  86.3910 355.9447 0012788 133.2009 227.0262 14.42352452471873
IRIDIUM 51              
1 25262U 98018A   26002.30926952  .00166170  00000+0  14599-2 0  9999
2 25262  86.3726 315.6471 0046740 185.0769 175.0033 15.66861131477864
IRIDIUM 57              
1 25273U 98019B   26002.18810889  .00000684  00000+0  22841-3 0  9996
2 25273  86.3939  61.8115 0002269  96.3174 263.8282 14.36069560453340
